#cP2021  8 16  0  0  0.00000000      96 ORBIT IGb14 HLM  IGS
## 2171  86400.00000000   900.00000000 59442 0.0000000000000
+   31   G01G02G03G04G05G06G07G08G09G10G12G13G14G15G16G17G18
+        G19G20G21G22G23G24G25G26G27G28G29G30G31G32  0  0  0
+          0  0  0  0  0  0  0  0  0  0  0  0  0  0  0  0  0
+          0  0  0  0  0  0  0  0  0  0  0  0  0  0  0  0  0
+          0  0  0  0  0  0  0  0  0  0  0  0  0  0  0  0  0
++         2  2  2  2  1  2  1  2  2  2  2  1  2  2  2  2  2
++         2  1  2  2  2  1  2  2  2  1  2  1  1  2  0  0  0
++         0  0  0  0  0  0  0  0  0  0  0  0  0  0  0  0  0
++         0  0  0  0  0  0  0  0  0  0  0  0  0  0  0  0  0
++         0  0  0  0  0  0  0  0  0  0  0  0  0  0  0  0  0
%c G  cc GPS ccc cccc cccc cccc cccc ccccc ccccc ccccc ccccc
%c cc cc ccc ccc cccc cccc cccc cccc ccccc ccccc ccccc ccccc
%f  1.2500000  1.025000000  0.00000000000  0.000000000000000
%f  0.0000000  0.000000000  0.00000000000  0.000000000000000
%i    0    0    0    0      0      0      0      0         0
%i    0    0    0    0      0      0      0      0         0
/* FINAL ORBIT COMBINATION FROM WEIGHTED AVERAGE OF:        
/* cod emr esa gfz grg jpl mit ngs sio                      
/* REFERENCED TO IGS TIME (IGST) AND TO WEIGHTED MEAN POLE: 
/* PCV:IGS14_2163 OL/AL:FES2004  NONE     Y  ORB:CMB CLK:CMB
*  2021  8 16 16 30  0.00000000
PG01  15958.024653  13500.423053 -16859.184191    595.815975  2  2  4  98       
PG02   9055.521135 -14257.884895  21169.089338   -626.686700  2  6  5  94       
PG03  12171.438288  23445.428169   3184.479143   -256.345080  2  5  6  71       
PG04   7230.377542  14439.769026  21081.679255   -203.937494  4  4  5  94       
PG05  -4931.054916 -24584.898517   8333.772394    -51.318893  2  5  5  81       
PG06  20759.238398  -7323.885190  14957.986640     57.107143  5  4  4  86       
PG07  25591.029451   6813.762715   4660.135801    226.232607  2  3  3  87       
PG08  -1981.561114  21134.171494 -15779.709257    -32.877060  3  7  4 103       
PG09  15998.583288   3243.465411  20891.793219   -358.950522  6  7  6  98       
PG10 -15128.698610   2239.949299 -21623.981937   -183.735977  4  4  6  95       
PG12 -10240.240900 -24394.291479   2812.758181    -83.776950  4  5  4  90       
PG13  10707.447045 -21601.834481 -11114.976097    172.186454  2  4  3  98       
PG14  15296.669732  -2534.940066 -21570.468351     22.431755  5  4  2  96       
PG15  -1263.338976 -21325.488061 -15943.208810   -127.943500  4  7  5  91       
PG16  -1959.256750  22803.177093  12829.771202   -374.729068  7  5  5  92       
PG17  20379.427974  -9897.930386 -13437.189363    490.296830  4  3  2  93       
PG18 -26039.274752  -5149.915728   1825.200880    332.195960  3  4  4  98       
PG19  20505.353711 -15665.570396  -6217.152626     40.429604  4  6  3  86       
PG20   3278.723729 -19595.283404  17718.436702    519.621864  3  4  4  79       
PG21   8574.546621  14504.657488 -19963.746860    137.558514  4  4  2  93       
PG22   9669.836217  24441.958230  -4336.665198   -536.764494  4  5  6  77       
PG23 -17598.352443  -9830.818168 -17351.888503     70.012849  4  3  5  91       
PG24 -11744.260016 -14769.219312 -19095.076791    210.028166  3  6  5  90       
PG25 -16282.469005 -17377.645887  11772.637797    192.191252  6  5  5  92       
PG26  -9258.337449  14583.944282  20046.336619    123.339936  5  4  4  96       
PG27 -10788.412909  22847.206396  -7732.155887   -179.191500  5  6  5  85       
PG28  12248.930753  -9239.426484 -21160.147902    518.740372  3  3  5 111       
PG29 -13890.418472  -6138.119536  21748.898858   -397.161430  5  4  5  99       
PG30  25552.642366  -1662.123702  -7430.497692   -462.858472  3  4  4  89       
PG31 -19756.571353   8333.707919  15876.016851   -134.604257  4  5  2  83       
PG32 -19883.501515  13171.184854 -11387.906794      7.253345  5  6  4  76       
*  2021  8 16 16 45  0.00000000
PG01  13996.104175  13382.771786 -18603.555510    595.805884  2  2  3  93       
PG02  11283.252442 -14139.649063  20125.631992   -626.688550  2  6  5  91       
PG03  12059.526721  23728.481675    325.208342   -256.356902  2  6  6  56       
PG04   5732.960403  16267.507939  20186.208761   -203.937808  3  5  5  88       
PG05  -4198.035232 -23692.752176  10893.519546    -51.320222  2  5  4  78       
PG06  22306.183792  -7032.164753  12696.191416     57.112992  5  3  4  82       
PG07  24934.037161   6978.024855   7358.406186    226.239494  2  3  3  94       
PG08  -3095.872202  22422.323205 -13652.369292    -32.877570  3  7  5  90       
PG09  14665.985790   5285.234755  21441.910696   -358.951391  5  6  6  91       
PG10 -16124.310514     -9.082394 -21040.073763   -183.742964  4  3  6  93       
PG12 -10106.121288 -24641.263150    -52.891478    -83.782119  3  5  4  84       
PG13  11621.941646 -22266.947546  -8542.919100    172.190813  2  3  3  85       
PG14  16174.215201   -257.260086 -21076.275282     22.424129  5  5  2  96       
PG15   -238.580749 -22670.137278 -13932.816746   -127.941275  4  7  5  85       
PG16  -2699.939823  21317.224075  15058.492720   -374.734335  7  5  5 100       
PG17  19419.176838  -8455.525035 -15600.786309    490.301842  4  3  2 106       
PG18 -25644.606048  -5329.814709   4659.954940    332.192726  2  4  4  98       
PG19  20097.443416 -14911.155462  -8943.599732     40.433776  3  6  3  91       
PG20   4556.838728 -17906.347701  19139.200063    519.621815  3  4  3  92       
PG21   6108.175183  14522.959518 -20765.165576    137.560085  4  4  2 103       
PG22   9071.361483  24017.606230  -7029.725900   -536.756185  5  6  6  89       
PG23 -18281.900912 -11578.917639 -15467.407861     70.008203  4  4  5  89       
PG24  -9544.502853 -14831.392170 -20218.299133    210.038107  2  6  5 103       
PG25 -16604.934335 -18586.213395   9292.062754    192.197011  6  5  5  90       
PG26 -10432.717532  12528.711557  20865.660388    123.343848  5  4  4 100       
PG27 -11386.228046  23294.422680  -4949.857375   -179.196406  5  7  5 106       
PG28  13114.182057  -6834.568997 -21525.224122    518.734205  3  3  5  90       
PG29 -12304.653200  -8084.382666  22059.077835   -397.166888  5  5  4  98       
PG30  26216.376487  -1287.189718  -4753.877814   -462.862229  4  4  3  94       
PG31 -21422.572939   7961.369662  13824.783203   -134.606624  3  5  2  83       
PG32 -19234.754555  11843.867432 -13715.677842      7.250803  5  6  4  92       
*  2021  8 16 17  0  0.00000000
PG01  11852.436535  13369.400197 -20038.124364    595.795692  3  3  3  85       
PG02  13383.660910 -14136.347270  18754.684783   -626.690696  2  6  5  82       
PG03  11811.818473  23731.051439  -2539.635221   -256.368710  2  6  6  47       
PG04   4399.982548  18070.714257  18943.048891   -203.938075  3  6  5  83       
PG05  -3278.814518 -22596.010090  13262.631288    -51.321146  2  5  4  89       
PG06  23598.983139  -6836.872300  10217.169888     57.118816  6  3  4  80       
PG07  23994.349183   7161.728731   9935.009164    226.246699  2  3  3  87       
PG08  -4010.704264  23548.374393 -11286.703801    -32.878496  3  6  5  90       
PG09  13417.398235   7427.813974  21620.989512   -358.952270  5  6  5  84       
PG10 -17196.562214  -2122.112415 -20091.991139   -183.749939  3  2  5  99       
PG12  -9856.144026 -24598.331514  -2917.661412    -83.786912  3  5  4  81       
PG13  12310.137245 -22748.196615  -5823.351979    172.195586  2  3  3  92       
PG14  17134.631446   1902.949774 -20219.762047     22.416395  5  5  1 105       
PG15    623.422022 -23847.879875 -11684.027180   -127.938911  3  7  5  91       
PG16  -3611.191095  19650.612582  17018.458232   -374.740035  7  5  5 105       
PG17  18403.689705  -6769.722266 -17488.037796    490.306513  4  1  1 104       
PG18 -24944.386887  -5513.206270   7414.896367    332.189528     5  4  91       
PG19  19546.215294 -13901.310119 -11516.405343     40.438273  2  6  3  78       
PG20   6001.766532 -16166.400839  20232.190486    519.621801  3  3  3  84       
PG21   3567.573676  14668.131117 -21188.607310    137.561904  4  4  3  93       
PG22   8286.598485  23376.326767  -9602.571740   -536.748185  5  6  6  85       
PG23 -18944.681588 -13089.723508 -13317.921487     70.003680  4  5  4  80       
PG24  -7241.810243 -15005.377121 -21003.972799    210.048167  2  6  5  96       
PG25 -16854.635365 -19518.285756   6652.236271    192.202785  5  6  5  97       
PG26 -11740.828214  10472.710042  21322.688910    123.347694  5  4  4 104       
PG27 -11790.306487  23498.784160  -2080.797707   -179.201320  6  6  5  94       
PG28  14112.482675  -4457.768711 -21500.749812    518.728356  3  3  5  80       
PG29 -10821.094195 -10127.260258  21988.022289   -397.172107  5  5  5  90       
PG30  26592.784360   -964.248142  -1996.477335   -462.865943  4  4  3  69       
PG31 -22859.953541   7692.342062  11539.584765   -134.608409  3  5  3 104       
PG32 -18522.909449  10270.901940 -15803.819864      7.248271  6  6  4  88       
EOF
